{
    "links": {
        "self": "http://www.neowsapp.com/rest/v1/neo/3455470?api_key=iIulBulltgU6a56xZRHN4H3l9WmuAYTsLGpBGhQ2"
    },
    "id": "3455470",
    "neo_reference_id": "3455470",
    "name": "(2009 FP32)",
    "designation": "2009 FP32",
    "nasa_jpl_url": "http://ssd.jpl.nasa.gov/sbdb.cgi?sstr=3455470",
    "absolute_magnitude_h": 27.7,
    "estimated_diameter": {
        "kilometers": {
            "estimated_diameter_min": 0.0076657557,
            "estimated_diameter_max": 0.0171411509
        },
        "meters": {
            "estimated_diameter_min": 7.6657557353,
            "estimated_diameter_max": 17.1411509231
        },
        "miles": {
            "estimated_diameter_min": 0.0047632783,
            "estimated_diameter_max": 0.0106510141
        },
        "feet": {
            "estimated_diameter_min": 25.1501180466,
            "estimated_diameter_max": 56.2373735944
        }
    },
    "is_potentially_hazardous_asteroid": false,
    "close_approach_data": [
        {
            "close_approach_date": "2009-03-31",
            "close_approach_date_full": "2009-Mar-31 23:59",
            "epoch_date_close_approach": 1238543940000,
            "relative_velocity": {
                "kilometers_per_second": "15.0057646124",
                "kilometers_per_hour": "54020.7526045756",
                "miles_per_hour": "33566.3948614375"
            },
            "miss_distance": {
                "astronomical": "0.0029618544",
                "lunar": "1.1521613616",
                "kilometers": "443087.109490128",
                "miles": "275321.5630066464"
            },
            "orbiting_body": "Earth"
        },
        {
            "close_approach_date": "2009-04-01",
            "close_approach_date_full": "2009-Apr-01 00:39",
            "epoch_date_close_approach": 1238546340000,
            "relative_velocity": {
                "kilometers_per_second": "16.0538934651",
                "kilometers_per_hour": "57794.016474256",
                "miles_per_hour": "35910.9542920175"
            },
            "miss_distance": {
                "astronomical": "0.0016666843",
                "lunar": "0.6483401927",
                "kilometers": "249332.421242441",
                "miles": "154927.9824540458"
            },
            "orbiting_body": "Moon"
        },
        {
            "close_approach_date": "2009-05-20",
            "close_approach_date_full": "2009-May-20 04:32",
            "epoch_date_close_approach": 1242793920000,
            "relative_velocity": {
                "kilometers_per_second": "10.1324703365",
                "kilometers_per_hour": "36476.8932113388",
                "miles_per_hour": "22665.3228956788"
            },
            "miss_distance": {
                "astronomical": "0.1101689985",
                "lunar": "42.8557404165",
                "kilometers": "16481047.515633195",
                "miles": "10240848.051780291"
            },
            "orbiting_body": "Venus"
        },
        {
            "close_approach_date": "2081-08-20",
            "close_approach_date_full": "2081-Aug-20 15:20",
            "epoch_date_close_approach": 3522928800000,
            "relative_velocity": {
                "kilometers_per_second": "18.2448604872",
                "kilometers_per_hour": "65681.4977538412",
                "miles_per_hour": "40811.9284237687"
            },
            "miss_distance": {
                "astronomical": "0.1094042892",
                "lunar": "42.5582684988",
                "kilometers": "16366648.633184004",
                "miles": "10169763.8824430952"
            },
            "orbiting_body": "Earth"
        },
        {
            "close_approach_date": "2084-03-04",
            "close_approach_date_full": "2084-Mar-04 12:18",
            "epoch_date_close_approach": 3603010680000,
            "relative_velocity": {
                "kilometers_per_second": "29.5560926538",
                "kilometers_per_hour": "106401.9335538398",
                "miles_per_hour": "66114.0236573845"
            },
            "miss_distance": {
                "astronomical": "0.4822446879",
                "lunar": "187.5931835931",
                "kilometers": "72142778.128654773",
                "miles": "44827443.6529629474"
            },
            "orbiting_body": "Earth"
        }
    ],
    "orbital_data": {
        "orbit_id": "6",
        "orbit_determination_date": "2017-04-06 09:00:51",
        "first_observation_date": "2009-03-29",
        "last_observation_date": "2009-03-30",
        "data_arc_in_days": 1,
        "observations_used": 20,
        "orbit_uncertainty": "8",
        "minimum_orbit_intersection": ".00185694",
        "jupiter_tisserand_invariant": "3.654",
        "epoch_osculation": "2454920.5",
        "eccentricity": ".5932898701424546",
        "semi_major_axis": "1.950247804604427",
        "inclination": ".8713165251808593",
        "ascending_node_longitude": "18.10635328207174",
        "orbital_period": "994.7939225769636",
        "perihelion_distance": ".7931855378650592",
        "perihelion_argument": "236.4500089155768",
        "aphelion_distance": "3.107310071343794",
        "perihelion_time": "2454964.866282613322",
        "mean_anomaly": "343.9445523557064",
        "mean_motion": ".3618839961018641",
        "equinox": "J2000",
        "orbit_class": {
            "orbit_class_type": "APO",
            "orbit_class_description": "Near-Earth asteroid orbits which cross the Earth’s orbit similar to that of 1862 Apollo",
            "orbit_class_range": "a (semi-major axis) > 1.0 AU; q (perihelion) < 1.017 AU"
        }
    },
    "is_sentry_object": false
}